{"type": "FeatureCollection", "features": [ {"type": "Feature", "properties": {"norad_id": 66889, "name": "STARLINK-35852", "group": "last-30-days", "lat": -48.269565951944514, "lon": -26.820304851855553, "alt_km": 352.36727674738995, "timestamp": "2025-12-21T09:37:21.373581+00:00", "meta": {"OBJECT_NAME": "STARLINK-35852", "OBJECT_ID": "2025-283M", "EPOCH": "2025-12-21T04:00:01.998720", "MEAN_MOTION": 15.74196587, "ECCENTRICITY": 0.0001101, "INCLINATION": 53.1577, "RA_OF_ASC_NODE": 31.5516, "ARG_OF_PERICENTER": 96.7376, "MEAN_ANOMALY": 306.1395, "EPHEMERIS_TYPE": 0, "CLASSIFICATION_TYPE": "U", "NORAD_CAT_ID": 66889, "ELEMENT_SET_NO": 999, "REV_AT_EPOCH": 378, "BSTAR": -0.00024624, "MEAN_MOTION_DOT": -0.00036548, "MEAN_MOTION_DDOT": 0}, "tle": {"line1": "1 66889U 25283M   25355.16668980 -.00036548  00000+0 -24624-3 0  9999", "line2": "2 66889  53.1577  31.5516 0001101  96.7376 306.1395 15.74196587  3787"}}, "geometry": {"type": "Point", "coordinates": [-26.820304851855553, -48.269565951944514]}}, {"type": "Feature", "properties": {"norad_id": 66890, "name": "STARLINK-35885", "group": "last-30-days", "lat": -47.41194612086634, "lon": -24.27490464285777, "alt_km": 352.34066779714794, "timestamp": "2025-12-21T09:37:21.373591+00:00", "meta": {"OBJECT_NAME": "STARLINK-35885", "OBJECT_ID": "2025-283N", "EPOCH": "2025-12-21T04:00:01.998720", "MEAN_MOTION": 15.74203562, "ECCENTRICITY": 0.0001132, "INCLINATION": 53.1578, "RA_OF_ASC_NODE": 31.548, "ARG_OF_PERICENTER": 94.3297, "MEAN_ANOMALY": 310.4617, "EPHEMERIS_TYPE": 0, "CLASSIFICATION_TYPE": "U", "NORAD_CAT_ID": 66890, "ELEMENT_SET_NO": 999, "REV_AT_EPOCH": 378, "BSTAR": -0.00031998, "MEAN_MOTION_DOT": -0.00047259, "MEAN_MOTION_DDOT": 0}, "tle": {"line1": "1 66890U 25283N   25355.16668980 -.00047259  00000+0 -31998-3 0  9994", "line2": "2 66890  53.1578  31.5480 0001132  94.3297 310.4617 15.74203562  3787"}}, "geometry": {"type": "Point", "coordinates": [-24.27490464285777, -47.41194612086634]}}, {"type": "Feature", "properties": {"norad_id": 66891, "name": "STARLINK-35855", "group": "last-30-days", "lat": -46.502123695272644, "lon": -21.82126664962931, "alt_km": 352.4455516252201, "timestamp": "2025-12-21T09:37:21.373603+00:00", "meta": {"OBJECT_NAME": "STARLINK-35855", "OBJECT_ID": "2025-283P", "EPOCH": "2025-12-21T04:00:01.998720", "MEAN_MOTION": 15.74196019, "ECCENTRICITY": 0.0001341, "INCLINATION": 53.1576, "RA_OF_ASC_NODE": 31.544, "ARG_OF_PERICENTER": 96.4841, "MEAN_ANOMALY": 310.2227, "EPHEMERIS_TYPE": 0, "CLASSIFICATION_TYPE": "U", "NORAD_CAT_ID": 66891, "ELEMENT_SET_NO": 999, "REV_AT_EPOCH": 378, "BSTAR": -0.00021221, "MEAN_MOTION_DOT": -0.00031601, "MEAN_MOTION_DDOT": 0}, "tle": {"line1": "1 66891U 25283P   25355.16668980 -.00031601  00000+0 -21221-3 0  9997", "line2": "2 66891  53.1576  31.5440 0001341  96.4841 310.2227 15.74196019  3785"}}, "geometry": {"type": "Point", "coordinates": [-21.82126664962931, -46.502123695272644]}}, {"type": "Feature", "properties": {"norad_id": 66892, "name": "STARLINK-35883", "group": "last-30-days", "lat": -45.539459338322594, "lon": -19.445822249203555, "alt_km": 352.20661605908936, "timestamp": "2025-12-21T09:37:21.373614+00:00", "meta": {"OBJECT_NAME": "STARLINK-35883", "OBJECT_ID": "2025-283Q", "EPOCH": "2025-12-21T04:00:01.998720", "MEAN_MOTION": 15.74205803, "ECCENTRICITY": 0.0001181, "INCLINATION": 53.1577, "RA_OF_ASC_NODE": 31.5395, "ARG_OF_PERICENTER": 81.3399, "MEAN_ANOMALY": 327.2813, "EPHEMERIS_TYPE": 0, "CLASSIFICATION_TYPE": "U", "NORAD_CAT_ID": 66892, "ELEMENT_SET_NO": 999, "REV_AT_EPOCH": 372, "BSTAR": -0.00034847, "MEAN_MOTION_DOT": -0.0005139, "MEAN_MOTION_DDOT": 0}, "tle": {"line1": "1 66892U 25283Q   25355.16668980 -.00051390  00000+0 -34847-3 0  9993", "line2": "2 66892  53.1577  31.5395 0001181  81.3399 327.2813 15.74205803  3724"}}, "geometry": {"type": "Point", "coordinates": [-19.445822249203555, -45.539459338322594]}}, {"type": "Feature", "properties": {"norad_id": 66893, "name": "STARLINK-36033", "group": "last-30-days", "lat": -44.52414984997661, "lon": -17.14128938501718, "alt_km": 352.28954270111444, "timestamp": "2025-12-21T09:37:21.373627+00:00", "meta": {"OBJECT_NAME": "STARLINK-36033", "OBJECT_ID": "2025-283R", "EPOCH": "2025-12-21T04:00:01.998720", "MEAN_MOTION": 15.74193994, "ECCENTRICITY": 0.0001238, "INCLINATION": 53.1578, "RA_OF_ASC_NODE": 31.5354, "ARG_OF_PERICENTER": 95.4256, "MEAN_ANOMALY": 315.1237, "EPHEMERIS_TYPE": 0, "CLASSIFICATION_TYPE": "U", "NORAD_CAT_ID": 66893, "ELEMENT_SET_NO": 999, "REV_AT_EPOCH": 378, "BSTAR": -0.00019755, "MEAN_MOTION_DOT": -0.00029466, "MEAN_MOTION_DDOT": 0}, "tle": {"line1": "1 66893U 25283R   25355.16668980 -.00029466  00000+0 -19755-3 0  9994", "line2": "2 66893  53.1578  31.5354 0001238  95.4256 315.1237 15.74193994  3781"}}, "geometry": {"type": "Point", "coordinates": [-17.14128938501718, -44.52414984997661]}}, {"type": "Feature", "properties": {"norad_id": 66894, "name": "STARLINK-35718", "group": "last-30-days", "lat": -43.47117937051162, "lon": -14.93193522820627, "alt_km": 352.1528182330676, "timestamp": "2025-12-21T09:37:21.373637+00:00", "meta": {"OBJECT_NAME": "STARLINK-35718", "OBJECT_ID": "2025-283S", "EPOCH": "2025-12-21T04:00:01.998720", "MEAN_MOTION": 15.74202675, "ECCENTRICITY": 0.000118, "INCLINATION": 53.1577, "RA_OF_ASC_NODE": 31.532, "ARG_OF_PERICENTER": 88.579, "MEAN_ANOMALY": 323.8786, "EPHEMERIS_TYPE": 0, "CLASSIFICATION_TYPE": "U", "NORAD_CAT_ID": 66894, "ELEMENT_SET_NO": 999, "REV_AT_EPOCH": 378, "BSTAR": -0.0002849, "MEAN_MOTION_DOT": -0.0004217, "MEAN_MOTION_DDOT": 0}, "tle": {"line1": "1 66894U 25283S   25355.16668980 -.00042170  00000+0 -28490-3 0  9998", "line2": "2 66894  53.1577  31.5320 0001180  88.5790 323.8786 15.74202675  3788"}}, "geometry": {"type": "Point", "coordinates": [-14.93193522820627, -43.47117937051162]}}, {"type": "Feature", "properties": {"norad_id": 66895, "name": "STARLINK-35971", "group": "last-30-days", "lat": -41.23375110790226, "lon": -10.724798287587648, "alt_km": 352.1847538400234, "timestamp": "2025-12-21T09:37:21.373649+00:00", "meta": {"OBJECT_NAME": "STARLINK-35971", "OBJECT_ID": "2025-283T", "EPOCH": "2025-12-21T04:00:01.998720", "MEAN_MOTION": 15.7420584, "ECCENTRICITY": 0.0001252, "INCLINATION": 53.1579, "RA_OF_ASC_NODE": 31.5226, "ARG_OF_PERICENTER": 101.6647, "MEAN_ANOMALY": 314.6338, "EPHEMERIS_TYPE": 0, "CLASSIFICATION_TYPE": "U", "NORAD_CAT_ID": 66895, "ELEMENT_SET_NO": 999, "REV_AT_EPOCH": 378, "BSTAR": -0.00041865, "MEAN_MOTION_DOT": -0.0006154, "MEAN_MOTION_DDOT": 0}, "tle": {"line1": "1 66895U 25283T   25355.16668980 -.00061540  00000+0 -41865-3 0  9992", "line2": "2 66895  53.1579  31.5226 0001252 101.6647 314.6338 15.74205840  3782"}}, "geometry": {"type": "Point", "coordinates": [-10.724798287587648, -41.23375110790226]}}, {"type": "Feature", "properties": {"norad_id": 66896, "name": "STARLINK-35791", "group": "last-30-days", "lat": -42.37385893465446, "lon": -12.79524494375732, "alt_km": 352.18082983007935, "timestamp": "2025-12-21T09:37:21.373659+00:00", "meta": {"OBJECT_NAME": "STARLINK-35791", "OBJECT_ID": "2025-283U", "EPOCH": "2025-12-21T04:00:01.998720", "MEAN_MOTION": 15.74207733, "ECCENTRICITY": 0.0001217, "INCLINATION": 53.1577, "RA_OF_ASC_NODE": 31.527, "ARG_OF_PERICENTER": 99.0053, "MEAN_ANOMALY": 315.3646, "EPHEMERIS_TYPE": 0, "CLASSIFICATION_TYPE": "U", "NORAD_CAT_ID": 66896, "ELEMENT_SET_NO": 999, "REV_AT_EPOCH": 378, "BSTAR": -0.00032559, "MEAN_MOTION_DOT": -0.00048081, "MEAN_MOTION_DDOT": 0}, "tle": {"line1": "1 66896U 25283U   25355.16668980 -.00048081  00000+0 -32559-3 0  9998", "line2": "2 66896  53.1577  31.5270 0001217  99.0053 315.3646 15.74207733  3785"}}, "geometry": {"type": "Point", "coordinates": [-12.79524494375732, -42.37385893465446]}}, {"type": "Feature", "properties": {"norad_id": 66897, "name": "STARLINK-36079", "group": "last-30-days", "lat": -40.06706948634324, "lon": -8.742022096499564, "alt_km": 352.00113910756863, "timestamp": "2025-12-21T09:37:21.373671+00:00", "meta": {"OBJECT_NAME": "STARLINK-36079", "OBJECT_ID": "2025-283V", "EPOCH": "2025-12-21T04:00:01.998720", "MEAN_MOTION": 15.74194478, "ECCENTRICITY": 0.0001094, "INCLINATION": 53.1576, "RA_OF_ASC_NODE": 31.5191, "ARG_OF_PERICENTER": 96.1968, "MEAN_ANOMALY": 322.0169, "EPHEMERIS_TYPE": 0, "CLASSIFICATION_TYPE": "U", "NORAD_CAT_ID": 66897, "ELEMENT_SET_NO": 999, "REV_AT_EPOCH": 378, "BSTAR": -0.00028983, "MEAN_MOTION_DOT": -0.0004287, "MEAN_MOTION_DDOT": 0}, "tle": {"line1": "1 66897U 25283V   25355.16668980 -.00042870  00000+0 -28983-3 0  9995", "line2": "2 66897  53.1576  31.5191 0001094  96.1968 322.0169 15.74194478  3789"}}, "geometry": {"type": "Point", "coordinates": [-8.742022096499564, -40.06706948634324]}}, {"type": "Feature", "properties": {"norad_id": 66898, "name": "STARLINK-36065", "group": "last-30-days", "lat": -38.86181421758445, "lon": -6.818071484966782, "alt_km": 351.9792527897889, "timestamp": "2025-12-21T09:37:21.373681+00:00", "meta": {"OBJECT_NAME": "STARLINK-36065", "OBJECT_ID": "2025-283W", "EPOCH": "2025-12-21T04:00:01.998720", "MEAN_MOTION": 15.74190866, "ECCENTRICITY": 0.0001182, "INCLINATION": 53.1579, "RA_OF_ASC_NODE": 31.5146, "ARG_OF_PERICENTER": 98.9799, "MEAN_ANOMALY": 321.1504, "EPHEMERIS_TYPE": 0, "CLASSIFICATION_TYPE": "U", "NORAD_CAT_ID": 66898, "ELEMENT_SET_NO": 999, "REV_AT_EPOCH": 378, "BSTAR": -0.00011645, "MEAN_MOTION_DOT": -0.0001765, "MEAN_MOTION_DDOT": 0}, "tle": {"line1": "1 66898U 25283W   25355.16668980 -.00017650  00000+0 -11645-3 0  9991", "line2": "2 66898  53.1579  31.5146 0001182  98.9799 321.1504 15.74190866  3783"}}, "geometry": {"type": "Point", "coordinates": [-6.818071484966782, -38.86181421758445]}}]}